<!DOCTYPE HTML PUBLIC "-//W3C//DTD HTML 4.0//EN" "http://www.w3.org/TR/REC-html40/strict.dtd">
<HTML>
<HEAD>
<TITLE>ADDS - METARS form results</TITLE>
<LINK REL="StyleSheet" type="text/css" HREF="/layout/awc/mystyle.css">
</HEAD>
<BODY BGCOLOR="#FFFFFF">
  <TABLE SUMMARY="This table is used for formatting purposes only" BORDER=0 CELLPADDING=3 CELLSPACING=0>
    <TR VALIGN="top">
      <TD ALIGN="left" COLSPAN="2">
        <H2>Aviation Digital Data Service (ADDS)</H2>
        Output produced by METARs form (1728&#160;UTC&nbsp;14 November 2016)<BR>
        found at <A HREF="http://aviationweather.gov/adds/metars/"> http://aviationweather.gov/adds/metars/</A><BR>&#160;<BR>
      </TD>
    </TR>
    <TR VALIGN="top">
      <TD ALIGN="left" COLSPAN="2">
<FONT FACE="Monospace,Courier">LWSK 141700Z 02013KT 9999 SCT043 03/M04 Q1031 NOSIG</FONT><BR>
<FONT FACE="Monospace,Courier">LWSK 141630Z 01012KT 9999 SCT046 03/M04 Q1031 NOSIG</FONT><BR>
<FONT FACE="Monospace,Courier">LWSK 141600Z 01010KT 9999 OVC046 03/M04 Q1031 NOSIG</FONT><BR>
<FONT FACE="Monospace,Courier">LWSK 141530Z 02011KT 9999 OVC043 04/M04 Q1030 NOSIG</FONT><BR>
<FONT FACE="Monospace,Courier">LWSK 141500Z 02011KT 9999 OVC046 04/M04 Q1030 NOSIG</FONT><BR>
<FONT FACE="Monospace,Courier">LWSK 141430Z 02010KT 9999 OVC046 04/M04 Q1030 NOSIG</FONT><BR>
<FONT FACE="Monospace,Courier">LWSK 141400Z 02009KT 9999 OVC040 04/M03 Q1030 NOSIG</FONT><BR>
<FONT FACE="Monospace,Courier">LWSK 141300Z 02008KT 340V040 9999 OVC040 05/M03 Q1030 NOSIG</FONT><BR>
<FONT FACE="Monospace,Courier">LWSK 141230Z 02006KT 9999 OVC040 05/M03 Q1030 NOSIG</FONT><BR>
<FONT FACE="Monospace,Courier">LWSK 141200Z 03006KT 9999 OVC040 05/M03 Q1030 NOSIG</FONT><BR>
<FONT FACE="Monospace,Courier">LWSK 141130Z 01008KT 9999 OVC043 05/M03 Q1030 NOSIG</FONT><BR>
<FONT FACE="Monospace,Courier">LWSK 141100Z 02010KT 9999 OVC038 05/M03 Q1030 NOSIG</FONT><BR>
<FONT FACE="Monospace,Courier">LWSK 141030Z 01010KT 9999 OVC040 05/M03 Q1030 NOSIG</FONT><BR>
<FONT FACE="Monospace,Courier">LWSK 141000Z 01011KT 9999 OVC040 04/M03 Q1031 NOSIG</FONT><BR>
<FONT FACE="Monospace,Courier">LWSK 140930Z 01010KT 9999 OVC040 04/M03 Q1031 NOSIG</FONT><BR>
<FONT FACE="Monospace,Courier">LWSK 140900Z 01010KT 9999 OVC046 04/M03 Q1030 NOSIG</FONT><BR>
<FONT FACE="Monospace,Courier">LWSK 140830Z 02008KT 9999 OVC046 04/M03 Q1031 NOSIG</FONT><BR>
<FONT FACE="Monospace,Courier">LWSK 140800Z 02008KT 9999 OVC046 04/M03 Q1030 NOSIG</FONT><BR>
<FONT FACE="Monospace,Courier">LWSK 140730Z 02008KT 9999 OVC045 03/M02 Q1030 NOSIG</FONT><BR>
<FONT FACE="Monospace,Courier">LWSK 140700Z 03009KT 9999 OVC046 03/M02 Q1030 NOSIG</FONT><BR>
<FONT FACE="Monospace,Courier">LWSK 140630Z 04005KT 010V070 9999 OVC045 03/M02 Q1030 NOSIG</FONT><BR>
<FONT FACE="Monospace,Courier">LWSK 140600Z 03004KT 9999 BKN043 02/M02 Q1029 NOSIG</FONT><BR>
<FONT FACE="Monospace,Courier">LWSK 140530Z 03005KT 9999 BKN043 02/M02 Q1029 NOSIG</FONT><BR>
<FONT FACE="Monospace,Courier">LWSK 140500Z 05006KT 9999 BKN043 02/M03 Q1029 NOSIG</FONT><BR>
<FONT FACE="Monospace,Courier">LWSK 140430Z 02008KT 350V050 9999 BKN043 02/M02 Q1028 NOSIG</FONT><BR>
<FONT FACE="Monospace,Courier">LWSK 140400Z 03006KT 9999 BKN043 02/M03 Q1028 NOSIG</FONT><BR>
<FONT FACE="Monospace,Courier">LWSK 140330Z 03008KT 9999 SCT043 01/M03 Q1028 NOSIG</FONT><BR>
<FONT FACE="Monospace,Courier">LWSK 140300Z 02007KT 9999 FEW040 02/M03 Q1028 NOSIG</FONT><BR>
<FONT FACE="Monospace,Courier">LWSK 140230Z 03006KT 9999 SCT043 02/M03 Q1028 NOSIG</FONT><BR>
<FONT FACE="Monospace,Courier">LWSK 140200Z 03007KT CAVOK 02/M03 Q1028 NOSIG</FONT><BR>
<FONT FACE="Monospace,Courier">LWSK 140130Z 03009KT CAVOK 02/M03 Q1027 NOSIG</FONT><BR>
<FONT FACE="Monospace,Courier">LWSK 140100Z 02010G20KT CAVOK 03/M03 Q1027 NOSIG</FONT><BR>
<FONT FACE="Monospace,Courier">LWSK 140030Z 02013KT CAVOK 03/M03 Q1027 NOSIG</FONT><BR>
<FONT FACE="Monospace,Courier">LWSK 132330Z 01014KT CAVOK 03/M03 Q1027 NOSIG</FONT><BR>
<FONT FACE="Monospace,Courier">LWSK 132300Z 01014KT CAVOK 03/M03 Q1027 NOSIG</FONT><BR>
<FONT FACE="Monospace,Courier">LWSK 132230Z 01015KT CAVOK 03/M03 Q1027 NOSIG</FONT><BR>
<FONT FACE="Monospace,Courier">LWSK 132200Z 01016KT CAVOK 04/M03 Q1026 NOSIG</FONT><BR>
<FONT FACE="Monospace,Courier">LWSK 132130Z 01016KT CAVOK 04/M03 Q1026 NOSIG</FONT><BR>
<FONT FACE="Monospace,Courier">LWSK 132100Z 02014KT CAVOK 04/M03 Q1026 NOSIG</FONT><BR>
<FONT FACE="Monospace,Courier">LWSK 132030Z 02015KT CAVOK 04/M03 Q1026 NOSIG</FONT><BR>
<FONT FACE="Monospace,Courier">LWSK 132000Z 02014KT CAVOK 04/M03 Q1025 NOSIG</FONT><BR>
<FONT FACE="Monospace,Courier">LWSK 131930Z 02017KT CAVOK 05/M04 Q1025 NOSIG</FONT><BR>
<FONT FACE="Monospace,Courier">LWSK 131900Z 02018KT CAVOK 05/M03 Q1024 NOSIG</FONT><BR>
<FONT FACE="Monospace,Courier">LWSK 131830Z 02015KT 9999 FEW050 05/M03 Q1024 NOSIG</FONT><BR>
<FONT FACE="Monospace,Courier">LWSK 131800Z 02012KT 9999 FEW050 05/M02 Q1024 NOSIG</FONT><BR>
<FONT FACE="Monospace,Courier">LWSK 131730Z 02015KT 9999 FEW050 06/M00 Q1023 NOSIG</FONT><BR>
<FONT FACE="Monospace,Courier">LWSK 131700Z 03010KT 9999 FEW050 08/00 Q1023 NOSIG</FONT><BR>
<FONT FACE="Monospace,Courier">LWSK 131630Z 02011KT 010V070 9999 FEW050 SCT070 09/00 Q1022 NOSIG</FONT><BR>
<FONT FACE="Monospace,Courier">LWSK 131600Z 01011KT 340V040 9999 FEW050 SCT070 09/M02 Q1022 NOSIG</FONT><BR>
<FONT FACE="Monospace,Courier">LWSK 131530Z 04008KT 9999 FEW050 09/M01 Q1021 NOSIG</FONT><BR>
<FONT FACE="Monospace,Courier">LWSK 131500Z 03008KT 9999 FEW050 10/M01 Q1021 NOSIG</FONT><BR>
<FONT FACE="Monospace,Courier">LWSK 131430Z 03010KT 9999 FEW050 10/00 Q1021 NOSIG</FONT><BR>
<FONT FACE="Monospace,Courier">LWSK 131400Z 04009KT 9999 FEW050 11/M00 Q1021 NOSIG</FONT><BR>
<FONT FACE="Monospace,Courier">LWSK 131330Z 02011KT 9999 FEW050 11/00 Q1020 NOSIG</FONT><BR>
<FONT FACE="Monospace,Courier">LWSK 131300Z 01009KT 9999 FEW050 12/01 Q1020 NOSIG</FONT><BR>
<FONT FACE="Monospace,Courier">LWSK 131230Z 02011KT 9999 FEW050 12/01 Q1020 NOSIG</FONT><BR>
<FONT FACE="Monospace,Courier">LWSK 131200Z 02010KT 9999 FEW050 SCT200 11/00 Q1020 NOSIG</FONT><BR>
<FONT FACE="Monospace,Courier">LWSK 131130Z 02007KT 360V060 9999 FEW050 11/01 Q1020 NOSIG</FONT><BR>
<FONT FACE="Monospace,Courier">LWSK 131100Z 00000KT 9999 SCT050 11/03 Q1020 NOSIG</FONT><BR>
<FONT FACE="Monospace,Courier">LWSK 131030Z 00000KT 9999 SCT050 11/02 Q1020 NOSIG</FONT><BR>
<FONT FACE="Monospace,Courier">LWSK 131000Z 26004KT 9999 SCT050 11/01 Q1020 NOSIG</FONT><BR>
<FONT FACE="Monospace,Courier">LWSK 130930Z 10005KT 080V160 9999 FEW050 10/01 Q1020 NOSIG</FONT><BR>
<FONT FACE="Monospace,Courier">LWSK 130900Z 03008KT 9999 FEW050 11/02 Q1020 NOSIG</FONT><BR>
<FONT FACE="Monospace,Courier">LWSK 130830Z 02007KT 320V050 9999 FEW050 10/02 Q1020 NOSIG</FONT><BR>
<FONT FACE="Monospace,Courier">LWSK 130800Z 02006KT 340V040 9999 FEW050 09/03 Q1020 NOSIG</FONT><BR>
<FONT FACE="Monospace,Courier">LWSK 130700Z 05003KT 9999 BKN050 07/02 Q1019 NOSIG</FONT><BR>
<FONT FACE="Monospace,Courier">LWSK 130630Z 10003KT 9999 BKN080 07/03 Q1019 NOSIG</FONT><BR>
<FONT FACE="Monospace,Courier">LWSK 130600Z 00000KT 9999 BKN083 05/04 Q1018 NOSIG</FONT><BR>
<FONT FACE="Monospace,Courier">LWSK 130530Z 00000KT 9999 BKN076 04/03 Q1017 NOSIG</FONT><BR>
<FONT FACE="Monospace,Courier">LWSK 130500Z 00000KT 9999 BKN076 04/03 Q1017 NOSIG</FONT><BR>
<FONT FACE="Monospace,Courier">LWSK 130430Z 28002KT 9999 BKN076 04/03 Q1016 NOSIG</FONT><BR>
<FONT FACE="Monospace,Courier">LWSK 130400Z 28002KT 9999 BKN076 04/03 Q1016 NOSIG</FONT><BR>
<FONT FACE="Monospace,Courier">LWSK 130330Z 28002KT 9999 BKN076 04/03 Q1016 NOSIG</FONT><BR>
<FONT FACE="Monospace,Courier">LWSK 130300Z 28002KT 9999 SCT076 04/03 Q1016 NOSIG</FONT><BR>
<FONT FACE="Monospace,Courier">LWSK 130230Z 00000KT 9999 SCT076 03/03 Q1015 NOSIG</FONT><BR>
<FONT FACE="Monospace,Courier">LWSK 130200Z 00000KT 9999 SCT100 04/02 Q1014 NOSIG</FONT><BR>
<FONT FACE="Monospace,Courier">LWSK 130130Z 00000KT 9999 SCT100 04/02 Q1014 NOSIG</FONT><BR>
<FONT FACE="Monospace,Courier">LWSK 130100Z 00000KT 9999 SCT100 05/04 Q1013 NOSIG</FONT><BR>
<FONT FACE="Monospace,Courier">LWSK 130030Z 00000KT 9999 SCT100 05/04 Q1013 NOSIG</FONT><BR>
<FONT FACE="Monospace,Courier">LWSK 130000Z 00000KT 9999 SCT100 05/04 Q1013 NOSIG</FONT><BR>
<FONT FACE="Monospace,Courier">LWSK 122330Z 00000KT 9999 SCT100 05/04 Q1013 NOSIG</FONT><BR>
<FONT FACE="Monospace,Courier">LWSK 122300Z 00000KT 9999 SCT100 05/04 Q1013 NOSIG</FONT><BR>
<FONT FACE="Monospace,Courier">LWSK 122230Z 00000KT 9999 FEW050 BKN100 05/04 Q1013 NOSIG</FONT><BR>
<FONT FACE="Monospace,Courier">LWSK 122200Z 00000KT 9999 FEW050 BKN100 05/04 Q1013 NOSIG</FONT><BR>
<FONT FACE="Monospace,Courier">LWSK 122130Z 00000KT 9999 FEW050 BKN100 10/04 Q1012 NOSIG</FONT><BR>
<FONT FACE="Monospace,Courier">LWSK 122100Z 07003KT 9999 FEW050 BKN100 06/05 Q1012 NOSIG</FONT><BR>
<FONT FACE="Monospace,Courier">LWSK 122030Z 00000KT 9999 -RA BKN050 06/05 Q1012 NOSIG</FONT><BR>
<FONT FACE="Monospace,Courier">LWSK 122000Z 00000KT 9999 SCT050 BKN080 05/04 Q1012 NOSIG</FONT><BR>
<FONT FACE="Monospace,Courier">LWSK 121930Z 13002KT 9999 FEW050 05/04 Q1012 NOSIG</FONT><BR>
<FONT FACE="Monospace,Courier">LWSK 121900Z 11004KT 9999 FEW050 06/04 Q1012 NOSIG</FONT><BR>
<FONT FACE="Monospace,Courier">LWSK 121830Z 15003KT 9999 FEW050 06/04 Q1012 NOSIG</FONT><BR>
<FONT FACE="Monospace,Courier">LWSK 121800Z 17004KT 9999 FEW043 07/05 Q1011 NOSIG</FONT><BR>
<FONT FACE="Monospace,Courier">LWSK 121730Z VRB02KT CAVOK 09/04 Q1011 NOSIG</FONT><BR>
<FONT FACE="Monospace,Courier">LWSK 121700Z VRB02KT CAVOK 09/04 Q1010 NOSIG</FONT><BR>
<FONT FACE="Monospace,Courier">LWSK 121630Z 05005KT CAVOK 09/05 Q1010 NOSIG</FONT><BR>
<FONT FACE="Monospace,Courier">LWSK 121600Z 00000KT 9999 FEW050 10/06 Q1010 NOSIG</FONT><BR>
<FONT FACE="Monospace,Courier">LWSK 121530Z 24004KT 9999 SCT050 BKN100 11/06 Q1009 NOSIG</FONT><BR>
<FONT FACE="Monospace,Courier">LWSK 121500Z 28005KT 9999 BKN050 OVC093 11/07 Q1010 NOSIG</FONT><BR>
<FONT FACE="Monospace,Courier">LWSK 121430Z 30010KT 260V330 9999 -RA SCT020 OVC063 10/07 Q1011 NOSIG</FONT><BR>
<FONT FACE="Monospace,Courier">LWSK 121400Z 29011G21KT 260V330 7000 +RA SCT015 OVC050 10/09 Q1012 NOSIG</FONT><BR>
<FONT FACE="Monospace,Courier">LWSK 121330Z 29010G21KT 260V320 8000 +RA SCT012 BKN020 OVC050 11/09 Q1010 NOSIG</FONT><BR>
<FONT FACE="Monospace,Courier">LWSK 121300Z 27002KT 9999 -RA FEW016 BKN040 OVC070 13/11 Q1009 NOSIG</FONT><BR>
<FONT FACE="Monospace,Courier">LWSK 121230Z 16006KT 140V210 9999 -RA FEW020 BKN043 OVC070 13/11 Q1009 NOSIG</FONT><BR>
<FONT FACE="Monospace,Courier">LWSK 121200Z 14012KT 9999 -RA FEW020 BKN040 OVC076 14/11 Q1009 NOSIG</FONT><BR>
<FONT FACE="Monospace,Courier">LWSK 121130Z 13011KT 9999 FEW020 BKN040 OVC076 14/11 Q1010 NOSIG</FONT><BR>
<FONT FACE="Monospace,Courier">LWSK 121100Z 14004KT 9999 -RA BKN043 OVC070 14/11 Q1011 RERA NOSIG</FONT><BR>
<FONT FACE="Monospace,Courier">LWSK 121030Z 16009KT 9999 -RA BKN050 OVC073 14/10 Q1011 NOSIG</FONT><BR>
        <PRE><font face="Monospace,Courier" size="+1">TAF LWSK 141730Z 1418/1518 02012KT 9999 SCT040 BKN110 
     TEMPO 1500/1506 SCT020 BKN040
       </font></PRE>
      </TD>
    </TR>
  </TABLE>
</BODY>
</HTML>
